NORAD_CAT_ID,OBJECT_NAME,OBJECT_TYPE,EPOCH,MEAN_MOTION,ECCENTRICITY,INCLINATION,RA_OF_ASC_NODE,ARG_OF_PERICENTER,MEAN_ANOMALY,BSTAR,MEAN_MOTION_DOT,MEAN_MOTION_DDOT,TLE_LINE0,TLE_LINE1,TLE_LINE2,SEMIMAJOR_AXIS,PERIOD,APOGEE,PERIGEE,DECAYED
50190.0,STARLINK-3268,PAYLOAD,2022-02-20 22:00:00,15.73215695,0.0003785,53.2165,46.9054,9.2201,32.8099,-8.3514e-05,-0.00012341,0.0,0 STARLINK-3268,1 50190U 21125AL  22051.91667824 -.00012341  00000-0 -83514-4 0  9997,2 50190  53.2165  46.9054 0003785   9.2201  32.8099 15.73215695 12967,6727.85,91.532,352.26199999999994,347.1690000000001,0.0
50190.0,STARLINK-3268,PAYLOAD,2022-02-21 14:00:01,15.73197307,0.0003986,53.2158,43.6081,10.9242,208.9552,-0.00050858,-0.00071425,0.0,0 STARLINK-3268,1 50190U 21125AL  22052.58334491 -.00071425  00000-0 -50858-3 0  9994,2 50190  53.2158  43.6081 0003986  10.9242 208.9552 15.73197307 13072,6727.903,91.533,352.45,347.086,0.0
50190.0,STARLINK-3268,PAYLOAD,2022-02-21 22:00:00,15.7314075,0.0003732,53.2162,41.9571,11.9286,296.8468,0.00055163,0.00077336,0.0,0 STARLINK-3268,1 50190U 21125AL  22052.91667824  .00077336  00000-0  55163-3 0  9999,2 50190  53.2162  41.9571 0003732  11.9286 296.8468 15.73140750 13128,6728.064,91.537,352.44,347.418,0.0
50190.0,STARLINK-3268,PAYLOAD,2022-02-22 14:00:01,15.73240993,0.000397,53.2166,38.6598,12.4776,114.1195,6.9152e-05,9.112e-05,0.0,0 STARLINK-3268,1 50190U 21125AL  22053.58334491  .00009112  00000-0  69152-4 0  9995,2 50190  53.2166  38.6598 0003970  12.4776 114.1195 15.73240993 13228,6727.778,91.531,352.314,346.972,0.0
50190.0,STARLINK-3268,PAYLOAD,2022-02-22 22:00:00,15.73288703,0.0003703,53.2167,37.0088,12.899,202.6779,-0.00046781,-0.00066042,0.0,0 STARLINK-3268,1 50190U 21125AL  22053.91667824 -.00066042  00000-0 -46781-3 0  9990,2 50190  53.2167  37.0088 0003703  12.8990 202.6779 15.73288703  3683,6727.642,91.528,351.999,347.016,0.0
50190.0,STARLINK-3268,PAYLOAD,2022-02-23 06:00:00,15.73202789,0.0003946,53.2164,35.3613,10.2585,294.3328,-0.00016689,-0.00023993,0.0,0 STARLINK-3268,1 50190U 21125AL  22054.25001157 -.00023993  00000-0 -16689-3 0  9991,2 50190  53.2164  35.3613 0003946  10.2585 294.3328 15.73202789 13337,6727.887,91.533,352.407,347.097,0.0
50190.0,STARLINK-3268,PAYLOAD,2022-02-23 14:00:01,15.73229803,0.0003871,53.2159,33.7111,7.6992,25.7923,-0.00048158,-0.00067787,0.0,0 STARLINK-3268,1 50190U 21125AL  22054.58334491 -.00067787  00000-0 -48158-3 0  9992,2 50190  53.2159  33.7111 0003871   7.6992  25.7923 15.73229803  3719,6727.81,91.531,352.28,347.071,0.0
50190.0,STARLINK-3268,PAYLOAD,2022-02-23 20:00:01,15.72795448,0.0003704,53.2163,32.4567,11.9862,358.3489,0.0025323,0.00364313,0.0,0 STARLINK-3268,1 50190U 21125AL  22054.83334491  .00364313  00000-0  25323-2 0  9991,2 50190  53.2163  32.4567 0003704  11.9862 358.3489 15.72795448 13427,6729.049,91.557,353.406,348.421,0.0
50190.0,STARLINK-3268,PAYLOAD,2022-02-23 22:00:00,15.72633281,0.0003792,53.2166,32.0423,10.845999999999998,111.6895,0.0057006,0.00866241,0.0,0 STARLINK-3268,1 50190U 21125AL  22054.91667824  .00866241  00000-0  57006-2 0  9999,2 50190  53.2166  32.0423 0003792  10.8460 111.6895 15.72633281  3714,6729.511,91.566,353.92800000000005,348.825,0.0
50190.0,STARLINK-3268,PAYLOAD,2022-02-24 06:00:00,15.73211301,0.000389,53.2164,30.4129,8.2294,203.1787,-0.00017647,-0.00025339,0.0,0 STARLINK-3268,1 50190U 21125AL  22055.25001157 -.00025339  00000-0 -17647-3 0  9993,2 50190  53.2164  30.4129 0003890   8.2294 203.1787 15.73211301 13491,6727.863,91.533,352.345,347.111,0.0
50190.0,STARLINK-3268,PAYLOAD,2022-02-24 14:00:01,15.73245548,0.0003785,53.2164,28.7624,5.6667,294.6656,-0.00044412,-0.00062641,0.0,0 STARLINK-3268,1 50190U 21125AL  22055.58334491 -.00062641  00000-0 -44412-3 0  9996,2 50190  53.2164  28.7624 0003785   5.6667 294.6656 15.73245548  3690,6727.765,91.531,352.177,347.084,0.0
50190.0,STARLINK-3268,PAYLOAD,2022-02-24 22:00:00,15.73172524,0.0003634,53.2167,27.1116,6.1705,23.1212,0.00025344,0.00035063,0.0,0 STARLINK-3268,1 50190U 21125AL  22055.91667824  .00035063  00000-0  25344-3 0  9991,2 50190  53.2167  27.1116 0003634   6.1705  23.1212 15.73172524  3667,6727.974,91.535,352.283,347.394,0.0
50190.0,STARLINK-3268,PAYLOAD,2022-02-25 06:00:00,15.73176215,0.0003905,53.2163,25.4643,4.225,113.9818,-0.0002182,-0.00031117,0.0,0 STARLINK-3268,1 50190U 21125AL  22056.25001157 -.00031117  00000-0 -21820-3 0  9993,2 50190  53.2163  25.4643 0003905   4.2250 113.9818 15.73176215 13644,6727.9630000000025,91.535,352.455,347.201,0.0
50190.0,STARLINK-3268,PAYLOAD,2022-02-25 14:00:01,15.73177817,0.0003776,53.2157,23.8136,3.6219,203.4681,-4.7284e-06,-1.287e-05,0.0,0 STARLINK-3268,1 50190U 21125AL  22056.58334491 -.00001287  00000-0 -47284-5 0  9998,2 50190  53.2157  23.8136 0003776   3.6219 203.4681 15.73177817  3685,6727.958000000001,91.534,352.36400000000015,347.283,0.0
50190.0,STARLINK-3268,PAYLOAD,2022-02-25 22:00:00,15.73196896,0.0003561,53.216,22.1633,4.5595,291.431,0.00033189,0.00046219,0.0,0 STARLINK-3268,1 50190U 21125AL  22056.91667824  .00046219  00000-0  33189-3 0  9993,2 50190  53.2160  22.1633 0003561   4.5595 291.4310 15.73196896 13755,6727.904,91.533,352.165,347.37300000000016,0.0
50190.0,STARLINK-3268,PAYLOAD,2022-02-26 06:00:00,15.73214744,0.0003794,53.2163,20.5158,3.7018,21.2366,-0.00025441,-0.00036213,0.0,0 STARLINK-3268,1 50190U 21125AL  22057.25001157 -.00036213  00000-0 -25441-3 0  9999,2 50190  53.2163  20.5158 0003794   3.7018  21.2366 15.73214744 13800,6727.853,91.532,352.271,347.166,0.0
50190.0,STARLINK-3268,PAYLOAD,2022-02-26 14:00:01,15.73220878,0.0003758,53.2163,18.8648,3.7676,110.084,-0.0003903,-0.00055115,0.0,0 STARLINK-3268,1 50190U 21125AL  22057.58334491 -.00055115  00000-0 -39030-3 0  9996,2 50190  53.2163  18.8648 0003758   3.7676 110.0840 15.73220878  3699,6727.8359999999975,91.532,352.22900000000016,347.172,0.0
50190.0,STARLINK-3268,PAYLOAD,2022-02-26 22:00:00,15.72745365,0.0003781,53.217,17.1965,6.6838,196.2079,0.0043743,0.00650509,0.0,0 STARLINK-3268,1 50190U 21125AL  22057.91667824  .00650509  00000-0  43743-2 0  9993,2 50190  53.2170  17.1965 0003781   6.6838 196.2079 15.72745365 13917,6729.191999999999,91.56,353.601,348.51199999999994,0.0
50190.0,STARLINK-3268,PAYLOAD,2022-02-27 06:00:00,15.73180959,0.0003922,53.2164,15.5669,4.1556,287.635,0.00022244,0.00030694,0.0,0 STARLINK-3268,1 50190U 21125AL  22058.25001157  .00030694  00000-0  22244-3 0  9993,2 50190  53.2164  15.5669 0003922   4.1556 287.6350 15.73180959 13965,6727.949000000001,91.534,352.45300000000015,347.176,0.0
50190.0,STARLINK-3268,PAYLOAD,2022-02-27 14:00:01,15.7323552,0.0003741,53.216,13.9158,4.0003,16.7095,-0.00028639,-0.00040701,0.0,0 STARLINK-3268,1 50190U 21125AL  22058.58334491 -.00040701  00000-0 -28639-3 0  9995,2 50190  53.2160  13.9158 0003741   4.0003  16.7095 15.73235520  3692,6727.794,91.531,352.176,347.142,0.0
50190.0,STARLINK-3268,PAYLOAD,2022-02-27 22:00:00,15.73199223,0.0003584,53.2163,12.2658,7.74,101.9327,2.7002e-05,3.168e-05,0.0,0 STARLINK-3268,1 50190U 21125AL  22058.91667824  .00003168  00000-0  27002-4 0  9999,2 50190  53.2163  12.2658 0003584   7.7400 101.9327 15.73199223  3704,6727.897,91.533,352.1740000000001,347.351,0.0
50190.0,STARLINK-3268,PAYLOAD,2022-02-28 06:00:00,15.73183837,0.0003857,53.2166,10.6181,6.7729,191.8578,7.715100000000001e-05,0.00010213,0.0,0 STARLINK-3268,1 50190U 21125AL  22059.25001157  .00010213  00000-0  77151-4 0  9997,2 50190  53.2166  10.6181 0003857   6.7729 191.8578 15.73183837 14124,6727.941,91.534,352.401,347.211,0.0
50190.0,STARLINK-3268,PAYLOAD,2022-02-28 14:00:01,15.731991699999998,0.0003705,53.2167,8.967,7.1434,280.3912,5.9982e-05,7.804e-05,0.0,0 STARLINK-3268,1 50190U 21125AL  22059.58334491  .00007804  00000-0  59982-4 0  9997,2 50190  53.2167   8.9670 0003705   7.1434 280.3912 15.73199170  3703,6727.898,91.533,352.255,347.27,0.0
50190.0,STARLINK-3268,PAYLOAD,2022-02-28 22:00:00,15.73257728,0.0003613,53.217,7.3171,6.2856,10.1584,-0.00067215,-0.00094179,0.0,0 STARLINK-3268,1 50190U 21125AL  22059.91667824 -.00094179  00000-0 -67215-3 0  9993,2 50190  53.2170   7.3171 0003613   6.2856  10.1584 15.73257728  3700,6727.731,91.53,352.026,347.165,0.0
50190.0,STARLINK-3268,PAYLOAD,2022-03-01 14:00:01,15.72893226,0.0003881,53.2172,4.0012,2.5379,191.86,-0.00084526,-0.00116158,0.0,0 STARLINK-3268,1 50190U 21125AL  22060.58334491 -.00116158  00000-0 -84526-3 0  9995,2 50190  53.2172   4.0012 0003881   2.5379 191.8600 15.72893226 14331,6728.77,91.551,353.246,348.024,0.0
50190.0,STARLINK-3268,PAYLOAD,2022-03-01 22:00:01,15.72932122,0.0003708,53.2175,2.344,3.1611,279.8148,-0.0056554,-0.00721896,0.0,0 STARLINK-3268,1 50190U 21125AL  22060.91668981 -.00721896  00000-0 -56554-2 0  9996,2 50190  53.2175   2.3440 0003708   3.1611 279.8148 15.72932122 14382,6728.659000000002,91.549,353.019,348.029,0.0
50190.0,STARLINK-3268,PAYLOAD,2022-03-02 14:00:01,15.71908634,0.0003623,53.2175,359.0471,2.8684,96.0163,-0.0058559,-0.00715901,0.0,0 STARLINK-3268,1 50190U 21125AL  22061.58334491 -.00715901  00000-0 -58559-2 0  9993,2 50190  53.2175 359.0471 0003623   2.8684  96.0163 15.71908634  3676,6731.579000000002,91.608,355.8830000000001,351.006,0.0
50190.0,STARLINK-3268,PAYLOAD,2022-03-02 22:00:00,15.71399604,0.0003945,53.2177,357.4006,353.2937,192.6579,-0.0060002,-0.00717775,0.0,0 STARLINK-3268,1 50190U 21125AL  22061.91667824 -.00717775  00000-0 -60002-2 0  9996,2 50190  53.2177 357.4006 0003945 353.2937 192.6579 15.71399604  3692,6733.033,91.638,357.55400000000014,352.242,0.0
50190.0,STARLINK-3268,PAYLOAD,2022-03-03 06:00:00,15.70879109,0.000312,53.2176,355.7569,316.4587,315.9499,-0.0059614,-0.00698907,0.0,0 STARLINK-3268,1 50190U 21125AL  22062.25001157 -.00698907  00000-0 -59614-2 0  9997,2 50190  53.2176 355.7569 0003120 316.4587 315.9499 15.70879109 14597,6734.52,91.668,358.486,354.284,0.0
